start=new Date('2022-03-24T00:00:00.000Z').valueOf();
sats=[{"ARG_OF_PERICENTER":"55.9524","MEAN_MOTION":"15.06413256","FILE":"3371636","LAUNCH_DATE":"2021-02-04","NORAD_CAT_ID":"47564","MEAN_ELEMENT_THEORY":"SGP4","COUNTRY_CODE":"US","RCS_SIZE":"LARGE","TLE_LINE2":"2 47564  53.0546  26.6576 0001933  55.9524 304.1648 15.06413256 62860","EPHEMERIS_TYPE":"0","GP_ID":"199537325","REV_AT_EPOCH":"6286","SITE":"AFETR","MEAN_ANOMALY":"304.1648","MEAN_MOTION_DDOT":"0.0000000000000","OBJECT_NAME":"STARLINK-1963","REF_FRAME":"TEME","SEMIMAJOR_AXIS":"6925.308","APOAPSIS":"548.512","PERIAPSIS":"545.834","EPOCH":"2022-03-23T20:52:56.876736","CLASSIFICATION_TYPE":"U","BSTAR":"0.00018796000000","PERIOD":"95.591","OBJECT_ID":"2021-009S","MEAN_MOTION_DOT":"0.00002520","DECAY_DATE":null,"OBJECT_TYPE":"PAYLOAD","ELEMENT_SET_NO":"999","INCLINATION":"53.0546","CENTER_NAME":"EARTH","TLE_LINE1":"1 47564U 21009S   22082.87010274  .00002520  00000-0  18796-3 0  9994","RA_OF_ASC_NODE":"26.6576","TIME_SYSTEM":"UTC","ECCENTRICITY":"0.00019330"},{"ELEMENT_SET_NO":"999","OBJECT_TYPE":"PAYLOAD","TLE_LINE1":"1 47565U 21009T   22082.66737866  .00000793  00000-0  72152-4 0  9992","CENTER_NAME":"EARTH","INCLINATION":"53.0553","RA_OF_ASC_NODE":"27.5646","ECCENTRICITY":"0.00017020","TIME_SYSTEM":"UTC","REF_FRAME":"TEME","OBJECT_NAME":"STARLINK-1964","MEAN_MOTION_DDOT":"0.0000000000000","PERIAPSIS":"546.028","APOAPSIS":"548.385","SEMIMAJOR_AXIS":"6925.342","BSTAR":"0.00007215200000","CLASSIFICATION_TYPE":"U","EPOCH":"2022-03-23T16:01:01.516224","MEAN_MOTION_DOT":"0.00000793","DECAY_DATE":null,"OBJECT_ID":"2021-009T","PERIOD":"95.592","EPHEMERIS_TYPE":"0","TLE_LINE2":"2 47565  53.0553  27.5646 0001702  47.9224 312.1910 15.06402243 62831","REV_AT_EPOCH":"6283","GP_ID":"199537576","MEAN_ANOMALY":"312.1910","SITE":"AFETR","FILE":"3371636","MEAN_MOTION":"15.06402243","ARG_OF_PERICENTER":"47.9224","MEAN_ELEMENT_THEORY":"SGP4","NORAD_CAT_ID":"47565","LAUNCH_DATE":"2021-02-04","RCS_SIZE":"LARGE","COUNTRY_CODE":"US"},{"SITE":"AFETR","MEAN_ANOMALY":"304.3297","GP_ID":"199512341","REV_AT_EPOCH":"6356","TLE_LINE2":"2 47566  53.0573  18.1821 0001772  55.7859 304.3297 15.06396550 63568","EPHEMERIS_TYPE":"0","COUNTRY_CODE":"US","RCS_SIZE":"LARGE","LAUNCH_DATE":"2021-02-04","NORAD_CAT_ID":"47566","MEAN_ELEMENT_THEORY":"SGP4","ARG_OF_PERICENTER":"55.7859","MEAN_MOTION":"15.06396550","FILE":"3371480","TIME_SYSTEM":"UTC","ECCENTRICITY":"0.00017720","RA_OF_ASC_NODE":"18.1821","CENTER_NAME":"EARTH","INCLINATION":"53.0573","TLE_LINE1":"1 47566U 21009U   22082.52823862  .00000895  00000-0  79013-4 0  9996","OBJECT_TYPE":"PAYLOAD","ELEMENT_SET_NO":"999","PERIOD":"95.592","OBJECT_ID":"2021-009U","MEAN_MOTION_DOT":"0.00000895","DECAY_DATE":null,"EPOCH":"2022-03-23T12:40:39.816768","CLASSIFICATION_TYPE":"U","BSTAR":"0.00007901300000","SEMIMAJOR_AXIS":"6925.359","PERIAPSIS":"545.997","APOAPSIS":"548.451","MEAN_MOTION_DDOT":"0.0000000000000","OBJECT_NAME":"STARLINK-1965","REF_FRAME":"TEME"},{"TIME_SYSTEM":"UTC","ECCENTRICITY":"0.00018120","RA_OF_ASC_NODE":"57.7286","CENTER_NAME":"EARTH","INCLINATION":"53.0564","TLE_LINE1":"1 47567U 21009V   22082.63143683  .00000810  00000-0  73258-4 0  9997","OBJECT_TYPE":"PAYLOAD","ELEMENT_SET_NO":"999","OBJECT_ID":"2021-009V","PERIOD":"95.592","DECAY_DATE":null,"MEAN_MOTION_DOT":"0.00000810","CLASSIFICATION_TYPE":"U","EPOCH":"2022-03-23T15:09:16.142112","BSTAR":"0.00007325800000","SEMIMAJOR_AXIS":"6925.332","APOAPSIS":"548.452","PERIAPSIS":"545.942","MEAN_MOTION_DDOT":"0.0000000000000","REF_FRAME":"TEME","OBJECT_NAME":"STARLINK-1966","MEAN_ANOMALY":"309.3499","SITE":"AFETR","GP_ID":"199536575","REV_AT_EPOCH":"6240","EPHEMERIS_TYPE":"0","TLE_LINE2":"2 47567  53.0564  57.7286 0001812  50.7651 309.3499 15.06405317 62406","COUNTRY_CODE":"US","RCS_SIZE":"LARGE","LAUNCH_DATE":"2021-02-04","MEAN_ELEMENT_THEORY":"SGP4","NORAD_CAT_ID":"47567","ARG_OF_PERICENTER":"50.7651","FILE":"3371636","MEAN_MOTION":"15.06405317"},{"PERIOD":"95.592","OBJECT_ID":"2021-009W","MEAN_MOTION_DOT":"0.00001259","DECAY_DATE":null,"EPOCH":"2022-03-23T07:48:43.390080","CLASSIFICATION_TYPE":"U","BSTAR":"0.00010340000000","SEMIMAJOR_AXIS":"6925.327","APOAPSIS":"548.386","PERIAPSIS":"545.998","MEAN_MOTION_DDOT":"0.0000000000000","OBJECT_NAME":"STARLINK-1967","REF_FRAME":"TEME","TIME_SYSTEM":"UTC","ECCENTRICITY":"0.00017240","RA_OF_ASC_NODE":"59.0873","INCLINATION":"53.0549","CENTER_NAME":"EARTH","TLE_LINE1":"1 47568U 21009W   22082.32550220  .00001259  00000-0  10340-3 0  9993","OBJECT_TYPE":"PAYLOAD","ELEMENT_SET_NO":"999","COUNTRY_CODE":"US","RCS_SIZE":"LARGE","LAUNCH_DATE":"2021-02-04","NORAD_CAT_ID":"47568","MEAN_ELEMENT_THEORY":"SGP4","ARG_OF_PERICENTER":"49.6758","MEAN_MOTION":"15.06407138","FILE":"3371208","SITE":"AFETR","MEAN_ANOMALY":"310.4382","GP_ID":"199476530","REV_AT_EPOCH":"6236","TLE_LINE2":"2 47568  53.0549  59.0873 0001724  49.6758 310.4382 15.06407138 62366","EPHEMERIS_TYPE":"0"},{"SITE":"AFETR","MEAN_ANOMALY":"305.1175","GP_ID":"199477276","REV_AT_EPOCH":"6323","EPHEMERIS_TYPE":"0","TLE_LINE2":"2 47569  53.0610 358.7584 0002737  55.0088 305.1175 15.45243093 63235","COUNTRY_CODE":"US","RCS_SIZE":"LARGE","LAUNCH_DATE":"2021-02-04","NORAD_CAT_ID":"47569","MEAN_ELEMENT_THEORY":"SGP4","ARG_OF_PERICENTER":"55.0088","MEAN_MOTION":"15.45243093","FILE":"3371208","TIME_SYSTEM":"UTC","ECCENTRICITY":"0.00027370","RA_OF_ASC_NODE":"358.7584","CENTER_NAME":"EARTH","INCLINATION":"53.0610","TLE_LINE1":"1 47569U 21009X   22082.47078033  .00083676  00000-0  17223-2 0  9996","OBJECT_TYPE":"PAYLOAD","ELEMENT_SET_NO":"999","PERIOD":"93.189","OBJECT_ID":"2021-009X","MEAN_MOTION_DOT":"0.00083676","DECAY_DATE":null,"EPOCH":"2022-03-23T11:17:55.420512","CLASSIFICATION_TYPE":"U","BSTAR":"0.00172230000000","SEMIMAJOR_AXIS":"6808.801","PERIAPSIS":"428.802","APOAPSIS":"432.529","MEAN_MOTION_DDOT":"0.0000000000000","OBJECT_NAME":"STARLINK-1968","REF_FRAME":"TEME"},{"ARG_OF_PERICENTER":"59.2966","FILE":"3371208","MEAN_MOTION":"15.06394528","LAUNCH_DATE":"2021-02-04","MEAN_ELEMENT_THEORY":"SGP4","NORAD_CAT_ID":"47570","COUNTRY_CODE":"US","RCS_SIZE":"LARGE","TLE_LINE2":"2 47570  53.0559  18.2238 0001731  59.2966 300.8193 15.06394528 62954","EPHEMERIS_TYPE":"0","GP_ID":"199477518","REV_AT_EPOCH":"6295","MEAN_ANOMALY":"300.8193","SITE":"AFETR","MEAN_MOTION_DDOT":"0.0000000000000","REF_FRAME":"TEME","OBJECT_NAME":"STARLINK-1969","SEMIMAJOR_AXIS":"6925.365","APOAPSIS":"548.429","PERIAPSIS":"546.032","CLASSIFICATION_TYPE":"U","EPOCH":"2022-03-23T12:24:44.355456","BSTAR":"-0.00005324600000","OBJECT_ID":"2021-009Y","PERIOD":"95.592","MEAN_MOTION_DOT":"-0.00001074","DECAY_DATE":null,"OBJECT_TYPE":"PAYLOAD","ELEMENT_SET_NO":"999","INCLINATION":"53.0559","CENTER_NAME":"EARTH","TLE_LINE1":"1 47570U 21009Y   22082.51718004 -.00001074  00000-0 -53246-4 0  9993","RA_OF_ASC_NODE":"18.2238","TIME_SYSTEM":"UTC","ECCENTRICITY":"0.00017310"},{"ARG_OF_PERICENTER":"34.0884","FILE":"3371636","MEAN_MOTION":"15.06401786","COUNTRY_CODE":"US","RCS_SIZE":"LARGE","LAUNCH_DATE":"2021-02-04","MEAN_ELEMENT_THEORY":"SGP4","NORAD_CAT_ID":"47571","EPHEMERIS_TYPE":"0","TLE_LINE2":"2 47571  53.0550  26.7010 0002312  34.0884 326.0253 15.06401786 62866","MEAN_ANOMALY":"326.0253","SITE":"AFETR","GP_ID":"199537076","REV_AT_EPOCH":"6286","SEMIMAJOR_AXIS":"6925.343","PERIAPSIS":"545.607","APOAPSIS":"548.809","MEAN_MOTION_DDOT":"0.0000000000000","REF_FRAME":"TEME","OBJECT_NAME":"STARLINK-1970","OBJECT_ID":"2021-009Z","PERIOD":"95.592","DECAY_DATE":null,"MEAN_MOTION_DOT":"0.00003231","CLASSIFICATION_TYPE":"U","EPOCH":"2022-03-23T20:37:01.729056","BSTAR":"0.00023574000000","CENTER_NAME":"EARTH","INCLINATION":"53.0550","TLE_LINE1":"1 47571U 21009Z   22082.85904779  .00003231  00000-0  23574-3 0  9992","OBJECT_TYPE":"PAYLOAD","ELEMENT_SET_NO":"999","TIME_SYSTEM":"UTC","ECCENTRICITY":"0.00023120","RA_OF_ASC_NODE":"26.7010"},{"CENTER_NAME":"EARTH","INCLINATION":"53.0567","TLE_LINE1":"1 47572U 21009AA  22082.57522744  .00000149  00000-0  28897-4 0  9999","OBJECT_TYPE":"PAYLOAD","ELEMENT_SET_NO":"999","TIME_SYSTEM":"UTC","ECCENTRICITY":"0.00019080","RA_OF_ASC_NODE":"27.9758","SEMIMAJOR_AXIS":"6925.335","APOAPSIS":"548.522","PERIAPSIS":"545.879","MEAN_MOTION_DDOT":"0.0000000000000","REF_FRAME":"TEME","OBJECT_NAME":"STARLINK-1971","OBJECT_ID":"2021-009AA","PERIOD":"95.592","DECAY_DATE":null,"MEAN_MOTION_DOT":"0.00000149","CLASSIFICATION_TYPE":"U","EPOCH":"2022-03-23T13:48:19.650816","BSTAR":"0.00002889700000","TLE_LINE2":"2 47572  53.0567  27.9758 0001908  57.3575 302.7598 15.06404349 62829","EPHEMERIS_TYPE":"0","MEAN_ANOMALY":"302.7598","SITE":"AFETR","GP_ID":"199477031","REV_AT_EPOCH":"6282","ARG_OF_PERICENTER":"57.3575","FILE":"3371208","MEAN_MOTION":"15.06404349","COUNTRY_CODE":"US","RCS_SIZE":"LARGE","LAUNCH_DATE":"2021-02-04","MEAN_ELEMENT_THEORY":"SGP4","NORAD_CAT_ID":"47572"},{"TLE_LINE2":"2 47573  53.0584  26.5810 0001739  54.1359 305.9791 15.06398366 62865","EPHEMERIS_TYPE":"0","SITE":"AFETR","MEAN_ANOMALY":"305.9791","GP_ID":"199537577","REV_AT_EPOCH":"6286","ARG_OF_PERICENTER":"54.1359","MEAN_MOTION":"15.06398366","FILE":"3371636","COUNTRY_CODE":"US","RCS_SIZE":"LARGE","LAUNCH_DATE":"2021-02-04","NORAD_CAT_ID":"47573","MEAN_ELEMENT_THEORY":"SGP4","CENTER_NAME":"EARTH","INCLINATION":"53.0584","TLE_LINE1":"1 47573U 21009AB  22082.88484736  .00001876  00000-0  14484-3 0  9996","OBJECT_TYPE":"PAYLOAD","ELEMENT_SET_NO":"999","TIME_SYSTEM":"UTC","ECCENTRICITY":"0.00017390","RA_OF_ASC_NODE":"26.5810","SEMIMAJOR_AXIS":"6925.354","APOAPSIS":"548.423","PERIAPSIS":"546.014","MEAN_MOTION_DDOT":"0.0000000000000","OBJECT_NAME":"STARLINK-1975","REF_FRAME":"TEME","PERIOD":"95.592","OBJECT_ID":"2021-009AB","MEAN_MOTION_DOT":"0.00001876","DECAY_DATE":null,"EPOCH":"2022-03-23T21:14:10.811904","CLASSIFICATION_TYPE":"U","BSTAR":"0.00014484000000"}];
